IRIDIUM 921 [-]         
1 24873U 97034E   23312.27215134  .00025019  00000+0  92616-3 0  9996
2 24873  86.3901  36.7786 0005518  34.3645 325.7958 15.27533627441474
IRIDIUM 26 [-]          
1 24903U 97043A   23311.66004268  .00000845  00000+0  28378-3 0  9990
2 24903  86.3989 357.1327 0002000  96.0784 264.0641 14.36071804372860
IRIDIUM 22 [-]          
1 24907U 97043E   23311.54477823  .00000840  00000+0  28856-3 0  9998
2 24907  86.3996   0.2397 0002150  91.3812 268.7630 14.34978822372471
DUMMY MASS 1 [-]        
1 24925U 97048A   23311.78184734  .00001050  00000+0  11722-3 0  9993
2 24925  86.3377  46.7046 0009083  73.3123 286.9098 14.85915874418113
DUMMY MASS 2 [-]        
1 24926U 97048B   23311.51310633  .00001208  00000+0  13611-3 0  9998
2 24926  86.3375  48.3324 0010007  81.8917 278.3442 14.85677403417628
IRIDIUM 29 [-]          
1 24944U 97051A   23311.75757768  .00000764  00000+0  25942-3 0  9998
2 24944  86.4003  30.1108 0002196  86.9616 273.1832 14.35433687369191
IRIDIUM 33 [-]          
1 24946U 97051C   23311.58203927  .00000678  00000+0  23504-3 0  9990
2 24946  86.3918  29.4573 0007731 180.2361 179.8832 14.34170204368507
IRIDIUM 28 [-]          
1 24948U 97051E   23311.76865940  .00000957  00000+0  32058-3 0  9995
2 24948  86.4009  27.9606 0001940 104.4903 255.6509 14.36377398369563
